[{"OBJECT_NAME":"LEMUR-2-LUCILLE-ROSE","OBJECT_ID":"2025-135BV","EPOCH":"2026-03-09T20:33:39.744864","MEAN_MOTION":14.98437227,"ECCENTRICITY":0.00099823,"INCLINATION":97.7607,"RA_OF_ASC_NODE":185.354,"ARG_OF_PERICENTER":240.475,"MEAN_ANOMALY":119.5478,"EPHEMERIS_TYPE":0,"CLASSIFICATION_TYPE":"U","NORAD_CAT_ID":65403,"ELEMENT_SET_NO":999,"REV_AT_EPOCH":3375,"BSTAR":0.0012144011,"MEAN_MOTION_DOT":0.00014478,"MEAN_MOTION_DDOT":0},{"OBJECT_NAME":"STARLINK-36166","OBJECT_ID":"2025-298K","EPOCH":"2026-03-09T22:00:01.999584","MEAN_MOTION":14.98341724,"ECCENTRICITY":0.00028696,"INCLINATION":70.001,"RA_OF_ASC_NODE":14.0309,"ARG_OF_PERICENTER":267.1586,"MEAN_ANOMALY":236.0639,"EPHEMERIS_TYPE":0,"CLASSIFICATION_TYPE":"U","NORAD_CAT_ID":67084,"ELEMENT_SET_NO":999,"REV_AT_EPOCH":590,"BSTAR":-0.0015931599,"MEAN_MOTION_DOT":-0.00019056,"MEAN_MOTION_DDOT":0}]
